[{"OBJECT_NAME":"STARLINK-6164","OBJECT_ID":"2023-090BD","EPOCH":"2026-03-09T22:00:01.999584","MEAN_MOTION":15.07245521,"ECCENTRICITY":0.00010687,"INCLINATION":43.001,"RA_OF_ASC_NODE":260.3189,"ARG_OF_PERICENTER":306.1074,"MEAN_ANOMALY":222.0716,"EPHEMERIS_TYPE":0,"CLASSIFICATION_TYPE":"U","NORAD_CAT_ID":57152,"ELEMENT_SET_NO":999,"REV_AT_EPOCH":577,"BSTAR":0.0048595736,"MEAN_MOTION_DOT":0.00075076,"MEAN_MOTION_DDOT":0},{"OBJECT_NAME":"OBJECT R","OBJECT_ID":"2021-022R","EPOCH":"2026-03-09T22:54:37.456416","MEAN_MOTION":15.08912229,"ECCENTRICITY":0.00182027,"INCLINATION":97.3728,"RA_OF_ASC_NODE":308.5333,"ARG_OF_PERICENTER":149.1845,"MEAN_ANOMALY":211.0456,"EPHEMERIS_TYPE":0,"CLASSIFICATION_TYPE":"U","NORAD_CAT_ID":47947,"ELEMENT_SET_NO":999,"REV_AT_EPOCH":27304,"BSTAR":2.1057411e-5,"MEAN_MOTION_DOT":2.72e-6,"MEAN_MOTION_DDOT":0}]
